{"msg":"成功","data":[{"userNum":0,"places":[{"userNum":437,"places":[],"placeID":"7005","state":"正常","placeName":"吊桥公园"},{"userNum":214,"places":[],"placeID":"7037","state":"正常","placeName":"海拉尔西山国家森林公园2"},{"userNum":172,"places":[],"placeID":"7015","state":"正常","placeName":"红花尔基森林公园/呼伦贝尔市红花尔基樟子松国家森林公园"},{"userNum":171,"places":[],"placeID":"7001","state":"正常","placeName":"白音呼硕旅游区1"},{"userNum":166,"places":[],"placeID":"7028","state":"正常","placeName":"呼伦湖旅游渡假区"},{"userNum":150,"places":[],"placeID":"7010","state":"正常","placeName":"根河飞机场"},{"userNum":117,"places":[],"placeID":"7017","state":"正常","placeName":"呼伦贝尔古城"},{"userNum":114,"places":[],"placeID":"7011","state":"正常","placeName":"海拉尔东山机场"},{"userNum":106,"places":[],"placeID":"7035","state":"正常","placeName":"扎兰屯飞机场"},{"userNum":101,"places":[],"placeID":"7038","state":"正常","placeName":"满洲里国门 中俄互市贸易旅游区"},{"userNum":92,"places":[],"placeID":"7009","state":"正常","placeName":"甘珠尔庙"},{"userNum":84,"places":[],"placeID":"7016","state":"正常","placeName":"呼和诺尔旅游区"},{"userNum":75,"places":[],"placeID":"7018","state":"正常","placeName":"呼伦贝尔市敖鲁古雅使鹿部落旅游景区"},{"userNum":67,"places":[],"placeID":"7004","state":"正常","placeName":"达斡尔民俗度假村"},{"userNum":65,"places":[],"placeID":"7006","state":"正常","placeName":"鄂伦春博物馆"},{"userNum":63,"places":[],"placeID":"7014","state":"正常","placeName":"黑山头古城"},{"userNum":57,"places":[],"placeID":"7029","state":"正常","placeName":"金帐汗旅游部落"},{"userNum":54,"places":[],"placeID":"7030","state":"正常","placeName":"满洲里机场"},{"userNum":50,"places":[],"placeID":"7003","state":"正常","placeName":"布苏里旅游渡假山庄 /呼伦贝尔市布苏里北疆军事文化旅游景区"},{"userNum":48,"places":[],"placeID":"7002","state":"正常","placeName":"白音呼硕旅游区/呼伦贝尔市巴彦呼硕旅游区"},{"userNum":46,"places":[],"placeID":"7012","state":"正常","placeName":"海拉尔西山国家森林公园"},{"userNum":46,"places":[],"placeID":"7033","state":"正常","placeName":"世界反法西斯纪念园/侵华日军海拉尔要塞北山遗址"},{"userNum":42,"places":[],"placeID":"7031","state":"正常","placeName":"莫尔道嘎国家森林公园"},{"userNum":32,"places":[],"placeID":"7007","state":"正常","placeName":"凤凰山庄 / 呼伦贝尔市牙克石市云龙山庄"},{"userNum":20,"places":[],"placeID":"7027","state":"正常","placeName":"呼伦贝尔市伊克萨玛国家森林公园"},{"userNum":18,"places":[],"placeID":"7008","state":"正常","placeName":"嘎仙洞旅游区"},{"userNum":12,"places":[],"placeID":"7019","state":"正常","placeName":"呼伦贝尔市巴彦呼硕旅游区"},{"userNum":11,"places":[],"placeID":"7034","state":"正常","placeName":"秀水山庄"},{"userNum":5,"places":[],"placeID":"7026","state":"正常","placeName":"呼伦贝尔市牙克石市云龙山庄/凤凰山庄"},{"userNum":1,"places":[],"placeID":"7013","state":"正常","placeName":"汗玛国家自然保护区"},{"userNum":1,"places":[],"placeID":"7032","state":"正常","placeName":"诺门罕湿地自然保护区/呼伦贝尔市诺门罕战役遗址景区"}],"placeID":"470","state":"","placeName":"呼伦贝尔"},{"userNum":0,"places":[{"userNum":286,"places":[],"placeID":"7112","state":"正常","placeName":"呼和浩特香格里拉大酒店"},{"userNum":160,"places":[],"placeID":"7113","state":"正常","placeName":"测试201705"},{"userNum":41,"places":[],"placeID":"7114","state":"正常","placeName":"测试201705"},{"userNum":29,"places":[],"placeID":"7103","state":"正常","placeName":"昭君博物院"},{"userNum":5,"places":[],"placeID":"7104","state":"正常","placeName":"大召寺"},{"userNum":1,"places":[],"placeID":"7102","state":"正常","placeName":"清水河老牛湾景区"}],"placeID":"471","state":"","placeName":"呼和浩特"},{"userNum":0,"places":[{"userNum":475,"places":[],"placeID":"7211","state":"正常","placeName":"人民公园"},{"userNum":400,"places":[],"placeID":"7202","state":"正常","placeName":"八一公园"},{"userNum":376,"places":[],"placeID":"7201","state":"正常","placeName":"包头阿尔丁广场"},{"userNum":374,"places":[],"placeID":"7217","state":"正常","placeName":"友谊广场"},{"userNum":324,"places":[],"placeID":"7206","state":"正常","placeName":"劳动公园"},{"userNum":315,"places":[],"placeID":"7210","state":"正常","placeName":"南海旅游度假村"},{"userNum":314,"places":[],"placeID":"7216","state":"正常","placeName":"银河广场"},{"userNum":204,"places":[],"placeID":"7204","state":"正常","placeName":"花苑"},{"userNum":157,"places":[],"placeID":"7203","state":"正常","placeName":"包头乐园"},{"userNum":151,"places":[],"placeID":"7208","state":"正常","placeName":"梅力更自然生态风景区"},{"userNum":121,"places":[],"placeID":"7212","state":"正常","placeName":"塞汗塔拉"},{"userNum":117,"places":[],"placeID":"7214","state":"正常","placeName":"五当召"},{"userNum":108,"places":[],"placeID":"7209","state":"正常","placeName":"明代城寺美岱召"},{"userNum":100,"places":[],"placeID":"7213","state":"正常","placeName":"石门风景区"},{"userNum":96,"places":[],"placeID":"7215","state":"正常","placeName":"希拉穆仁草原旅游区"},{"userNum":76,"places":[],"placeID":"7207","state":"正常","placeName":"吕祖庙"},{"userNum":51,"places":[],"placeID":"7205","state":"正常","placeName":"九峰山自然保护区"},{"userNum":16,"places":[],"placeID":"7218","state":"正常","placeName":"赵长城"},{"userNum":5,"places":[],"placeID":"7220","state":"正常","placeName":"固阳春坤山"},{"userNum":1,"places":[],"placeID":"7219","state":"正常","placeName":"奥林匹克国际会展中心"}],"placeID":"472","state":"","placeName":"包头"},{"userNum":0,"places":[{"userNum":99,"places":[],"placeID":"7301","state":"正常","placeName":"乌海湖生态旅游区"},{"userNum":53,"places":[],"placeID":"7302","state":"正常","placeName":"金沙湾生态旅游区"},{"userNum":15,"places":[],"placeID":"7303","state":"正常","placeName":"甘德尔山旅游区"}],"placeID":"473","state":"","placeName":"乌海"},{"userNum":0,"places":[{"userNum":799,"places":[],"placeID":"7406","state":"正常","placeName":"老虎山公园"},{"userNum":199,"places":[],"placeID":"7401","state":"正常","placeName":"乌兰察布市创博会"},{"userNum":136,"places":[],"placeID":"7403","state":"正常","placeName":"集宁国际皮草城"},{"userNum":85,"places":[],"placeID":"7407","state":"正常","placeName":"察尔湖生态旅游区"},{"userNum":65,"places":[],"placeID":"7404","state":"正常","placeName":"格根塔拉草原"},{"userNum":46,"places":[],"placeID":"7402","state":"正常","placeName":"黄花沟旅游区"},{"userNum":21,"places":[],"placeID":"7405","state":"正常","placeName":"岱海"}],"placeID":"474","state":"","placeName":"乌兰察布"},{"userNum":0,"places":[{"userNum":335,"places":[],"placeID":"7512","state":"正常","placeName":"测试1"},{"userNum":58,"places":[],"placeID":"7506","state":"正常","placeName":"镜湖"},{"userNum":53,"places":[],"placeID":"7508","state":"正常","placeName":"三大寺"},{"userNum":48,"places":[],"placeID":"7502","state":"正常","placeName":"孝庄园"},{"userNum":48,"places":[],"placeID":"7507","state":"正常","placeName":"扎鲁山地草原旅游区"},{"userNum":44,"places":[],"placeID":"7510","state":"正常","placeName":"牵手草原"},{"userNum":33,"places":[],"placeID":"7511","state":"正常","placeName":"奈曼王府"},{"userNum":30,"places":[],"placeID":"7509","state":"正常","placeName":"大青沟"},{"userNum":26,"places":[],"placeID":"7501","state":"正常","placeName":"珠日河草原旅游区"},{"userNum":10,"places":[],"placeID":"7503","state":"正常","placeName":"大乐林寺"},{"userNum":9,"places":[],"placeID":"7504","state":"正常","placeName":"怪山"},{"userNum":7,"places":[],"placeID":"7505","state":"正常","placeName":"辉特淖尔草原"}],"placeID":"475","state":"","placeName":"通辽"},{"userNum":0,"places":[{"userNum":335,"places":[],"placeID":"7512","state":"正常","placeName":"扎鲁特旗嘎达苏绿色休闲文化旅游度假产业园"},{"userNum":252,"places":[],"placeID":"7513","state":"正常","placeName":"科左后旗阿古拉湿地公园"}],"placeID":"476","state":"","placeName":"赤峰"},{"userNum":0,"places":[{"userNum":290,"places":[],"placeID":"7706","state":"正常","placeName":"康巴什新区中轴线沿线道路"},{"userNum":288,"places":[],"placeID":"7705","state":"正常","placeName":"康巴什中轴线广场"},{"userNum":147,"places":[],"placeID":"7712","state":"正常","placeName":"蒙古源流"},{"userNum":53,"places":[],"placeID":"7707","state":"正常","placeName":"康巴什双驹广场"},{"userNum":44,"places":[],"placeID":"7709","state":"正常","placeName":"东胜万家惠欢乐世界"},{"userNum":43,"places":[],"placeID":"7715","state":"正常","placeName":"湿地公园"},{"userNum":37,"places":[],"placeID":"7710","state":"正常","placeName":"鄂尔多斯野生动物园"},{"userNum":28,"places":[],"placeID":"7714","state":"正常","placeName":"乌兰活佛"},{"userNum":28,"places":[],"placeID":"7701","state":"正常","placeName":"婚庆公园"},{"userNum":25,"places":[],"placeID":"7711","state":"正常","placeName":"九城宫旅游度假区"},{"userNum":19,"places":[],"placeID":"7717","state":"正常","placeName":"伊旗马奶湖旅游区"},{"userNum":19,"places":[],"placeID":"7702","state":"正常","placeName":"鄂尔多斯成陵旅游区"},{"userNum":15,"places":[],"placeID":"7713","state":"正常","placeName":"郡王府"},{"userNum":14,"places":[],"placeID":"7718","state":"正常","placeName":"伊旗苏泊汗旅游区"},{"userNum":13,"places":[],"placeID":"7703","state":"正常","placeName":"响沙湾旅游区"},{"userNum":7,"places":[],"placeID":"7704","state":"正常","placeName":"恩格贝旅游区"},{"userNum":7,"places":[],"placeID":"7708","state":"正常","placeName":"鄂尔多斯市群众艺术馆"}],"placeID":"477","state":"","placeName":"鄂尔多斯"},{"userNum":0,"places":[{"userNum":454,"places":[],"placeID":"7813","state":"正常","placeName":"巴彦淖尔市医院"},{"userNum":100,"places":[],"placeID":"7803","state":"正常","placeName":"巴彦淖尔金川公园"},{"userNum":44,"places":[],"placeID":"7814","state":"正常","placeName":"巴彦淖尔市政府广场"},{"userNum":41,"places":[],"placeID":"7802","state":"正常","placeName":"巴彦淖尔湿地公园"},{"userNum":22,"places":[],"placeID":"7801","state":"正常","placeName":"临河人民公园"},{"userNum":16,"places":[],"placeID":"7808","state":"正常","placeName":"临河区政府大楼"},{"userNum":12,"places":[],"placeID":"7805","state":"正常","placeName":"巴彦淖尔市磴口县纳林湖景区"},{"userNum":7,"places":[],"placeID":"7809","state":"正常","placeName":"临河汽车站"},{"userNum":6,"places":[],"placeID":"7804","state":"正常","placeName":"巴彦淖尔市磴口县三盛公景区"},{"userNum":2,"places":[],"placeID":"7812","state":"正常","placeName":"临河火车站"}],"placeID":"478","state":"","placeName":"巴彦淖尔"},{"userNum":0,"places":[{"userNum":226,"places":[],"placeID":"7919","state":"正常","placeName":"山西会馆"},{"userNum":186,"places":[],"placeID":"7901","state":"正常","placeName":"贝子庙"},{"userNum":180,"places":[],"placeID":"7916","state":"正常","placeName":"多伦汽车站"},{"userNum":162,"places":[],"placeID":"7910","state":"正常","placeName":"二连浩特广场"},{"userNum":154,"places":[],"placeID":"7915","state":"正常","placeName":"白旗火车站"},{"userNum":140,"places":[],"placeID":"7918","state":"正常","placeName":"汇宗寺"},{"userNum":114,"places":[],"placeID":"7912","state":"正常","placeName":"二连浩特火车站"},{"userNum":82,"places":[],"placeID":"7914","state":"正常","placeName":"白旗汽车站"},{"userNum":67,"places":[],"placeID":"7928","state":"正常","placeName":"锡林广场"},{"userNum":59,"places":[],"placeID":"7902","state":"正常","placeName":"马都"},{"userNum":53,"places":[],"placeID":"7926","state":"正常","placeName":"苏右广场"},{"userNum":52,"places":[],"placeID":"7924","state":"正常","placeName":"黄旗大庙"},{"userNum":50,"places":[],"placeID":"7907","state":"正常","placeName":"锡林浩特火车站"},{"userNum":50,"places":[],"placeID":"7908","state":"正常","placeName":"锡林浩特机场"},{"userNum":25,"places":[],"placeID":"7921","state":"正常","placeName":"蓝旗公园"},{"userNum":24,"places":[],"placeID":"7904","state":"正常","placeName":"锡林浩特南湖公园"},{"userNum":19,"places":[],"placeID":"7927","state":"正常","placeName":"小扎格斯台"},{"userNum":16,"places":[],"placeID":"7917","state":"正常","placeName":"西山湾"},{"userNum":11,"places":[],"placeID":"7920","state":"正常","placeName":"元上都遗址"},{"userNum":9,"places":[],"placeID":"7922","state":"正常","placeName":"太旗广场"},{"userNum":3,"places":[],"placeID":"7925","state":"正常","placeName":"蒙古汉城"},{"userNum":1,"places":[],"placeID":"7905","state":"正常","placeName":"植物园"},{"userNum":1,"places":[],"placeID":"7911","state":"正常","placeName":"二连浩特车站"}],"placeID":"479","state":"","placeName":"锡林郭勒"},{"userNum":0,"places":[{"userNum":206,"places":[],"placeID":"8201","state":"正常","placeName":"阿尔山国家森林公园"},{"userNum":30,"places":[],"placeID":"8203","state":"正常","placeName":"科右中旗五角枫"},{"userNum":24,"places":[],"placeID":"8202","state":"正常","placeName":"阿尔山海神圣泉旅游度假区"},{"userNum":8,"places":[],"placeID":"8204","state":"正常","placeName":"乌兰浩特市成吉思汗公园"}],"placeID":"482","state":"","placeName":"兴安盟"},{"userNum":0,"places":[{"userNum":389,"places":[],"placeID":"8316","state":"正常","placeName":"策克口岸"},{"userNum":195,"places":[],"placeID":"8311","state":"正常","placeName":"腾格里沙漠"},{"userNum":181,"places":[],"placeID":"8326","state":"正常","placeName":"乌兰布和"},{"userNum":164,"places":[],"placeID":"8332","state":"正常","placeName":"巴彦浩特体育场"},{"userNum":109,"places":[],"placeID":"8330","state":"正常","placeName":"东风航天城"},{"userNum":100,"places":[],"placeID":"8308","state":"正常","placeName":"胡杨厅"},{"userNum":84,"places":[],"placeID":"8327","state":"正常","placeName":"通湖"},{"userNum":84,"places":[],"placeID":"8333","state":"正常","placeName":"盟委原址公园"},{"userNum":81,"places":[],"placeID":"8319","state":"正常","placeName":"左旗飞机场"},{"userNum":76,"places":[],"placeID":"8328","state":"正常","placeName":"水哨子"},{"userNum":68,"places":[],"placeID":"8324","state":"正常","placeName":"右旗飞机场"},{"userNum":65,"places":[],"placeID":"8318","state":"正常","placeName":"额济纳火车站"},{"userNum":47,"places":[],"placeID":"8315","state":"正常","placeName":"黑城"},{"userNum":35,"places":[],"placeID":"8321","state":"正常","placeName":"额济纳客运站"},{"userNum":32,"places":[],"placeID":"8322","state":"正常","placeName":"巴丹吉林沙漠"},{"userNum":32,"places":[],"placeID":"8331","state":"正常","placeName":"新世纪广场"},{"userNum":30,"places":[],"placeID":"8317","state":"正常","placeName":"额济纳机场"},{"userNum":28,"places":[],"placeID":"8325","state":"正常","placeName":"右旗客运站"},{"userNum":28,"places":[],"placeID":"8335","state":"正常","placeName":"巴彦浩特镇城市公园"},{"userNum":27,"places":[],"placeID":"8336","state":"正常","placeName":"沙漠植物园"},{"userNum":22,"places":[],"placeID":"8334","state":"正常","placeName":"巴彦浩特公园"},{"userNum":20,"places":[],"placeID":"8310","state":"正常","placeName":"南寺"},{"userNum":17,"places":[],"placeID":"8320","state":"正常","placeName":"左旗客运站"},{"userNum":16,"places":[],"placeID":"8329","state":"正常","placeName":"神根山"},{"userNum":15,"places":[],"placeID":"8307","state":"正常","placeName":"科技馆"},{"userNum":13,"places":[],"placeID":"8314","state":"正常","placeName":"胡杨林"},{"userNum":12,"places":[],"placeID":"8312","state":"正常","placeName":"月亮湖"},{"userNum":11,"places":[],"placeID":"8313","state":"正常","placeName":"居延海"},{"userNum":10,"places":[],"placeID":"8323","state":"正常","placeName":"海森楚鲁"},{"userNum":9,"places":[],"placeID":"8309","state":"正常","placeName":"北寺"},{"userNum":8,"places":[],"placeID":"8306","state":"正常","placeName":"九龙公园"}],"placeID":"483","state":"","placeName":"阿拉善"}],"success":true}